{
    "links": {
        "self": "http://www.neowsapp.com/rest/v1/neo/3828428?api_key=iIulBulltgU6a56xZRHN4H3l9WmuAYTsLGpBGhQ2"
    },
    "id": "3828428",
    "neo_reference_id": "3828428",
    "name": "(2018 RF5)",
    "designation": "2018 RF5",
    "nasa_jpl_url": "http://ssd.jpl.nasa.gov/sbdb.cgi?sstr=3828428",
    "absolute_magnitude_h": 27.4,
    "estimated_diameter": {
        "kilometers": {
            "estimated_diameter_min": 0.0088014652,
            "estimated_diameter_max": 0.0196806745
        },
        "meters": {
            "estimated_diameter_min": 8.801465209,
            "estimated_diameter_max": 19.6806745089
        },
        "miles": {
            "estimated_diameter_min": 0.0054689752,
            "estimated_diameter_max": 0.0122290004
        },
        "feet": {
            "estimated_diameter_min": 28.8761991163,
            "estimated_diameter_max": 64.5691441559
        }
    },
    "is_potentially_hazardous_asteroid": false,
    "close_approach_data": [
        {
            "close_approach_date": "2018-09-08",
            "close_approach_date_full": "2018-Sep-08 18:58",
            "epoch_date_close_approach": 1536433080000,
            "relative_velocity": {
                "kilometers_per_second": "9.0299316485",
                "kilometers_per_hour": "32507.7539345733",
                "miles_per_hour": "20199.054104513"
            },
            "miss_distance": {
                "astronomical": "0.020379564",
                "lunar": "7.927650396",
                "kilometers": "3048739.36592868",
                "miles": "1894398.797548584"
            },
            "orbiting_body": "Earth"
        }
    ],
    "orbital_data": {
        "orbit_id": "10",
        "orbit_determination_date": "2020-11-24 05:23:26",
        "first_observation_date": "2018-09-10",
        "last_observation_date": "2018-10-06",
        "data_arc_in_days": 26,
        "observations_used": 57,
        "orbit_uncertainty": "7",
        "minimum_orbit_intersection": ".00109732",
        "jupiter_tisserand_invariant": "3.273",
        "epoch_osculation": "2459000.5",
        "eccentricity": ".58285942185337",
        "semi_major_axis": "2.3969144847058",
        "inclination": "1.761029728248074",
        "ascending_node_longitude": "339.9280319911649",
        "orbital_period": "1355.430446164989",
        "perihelion_distance": ".999850293918209",
        "perihelion_argument": "345.2653160044536",
        "aphelion_distance": "3.793978675493391",
        "perihelion_time": "2458354.157414611812",
        "mean_anomaly": "171.6674812773272",
        "mean_motion": ".2655982835700439",
        "equinox": "J2000",
        "orbit_class": {
            "orbit_class_type": "APO",
            "orbit_class_description": "Near-Earth asteroid orbits which cross the Earth’s orbit similar to that of 1862 Apollo",
            "orbit_class_range": "a (semi-major axis) > 1.0 AU; q (perihelion) < 1.017 AU"
        }
    },
    "is_sentry_object": false
}